CCSDS_OMM_VERS = 2.0
CREATION_DATE  = 
ORIGINATOR     = 

OBJECT_NAME    = TITAN 4B R/B
OBJECT_ID      = 2000-047B
CENTER_NAME    = EARTH
REF_FRAME      = TEME
TIME_SYSTEM    = UTC
MEAN_ELEMENT_THEORY = SGP/SGP4

EPOCH          = 2025-11-16T16:30:16.008192
MEAN_MOTION    = 15.08522583
ECCENTRICITY   = .0041193
INCLINATION    = 67.9913
RA_OF_ASC_NODE = 358.0088
ARG_OF_PERICENTER = 175.0085
MEAN_ANOMALY   = 185.1484

EPHEMERIS_TYPE = 0
CLASSIFICATION_TYPE = U
NORAD_CAT_ID   = 26474
ELEMENT_SET_NO = 999
REV_AT_EPOCH   = 37586
BSTAR          = .35777E-3
MEAN_MOTION_DOT = .5575E-4
MEAN_MOTION_DDOT = 0

CCSDS_OMM_VERS = 2.0
CREATION_DATE  = 
ORIGINATOR     = 

OBJECT_NAME    = ENVISAT
OBJECT_ID      = 2002-009A
CENTER_NAME    = EARTH
REF_FRAME      = TEME
TIME_SYSTEM    = UTC
MEAN_ELEMENT_THEORY = SGP/SGP4

EPOCH          = 2025-11-16T21:23:45.275136
MEAN_MOTION    = 14.38985924
ECCENTRICITY   = .0001269
INCLINATION    = 98.3556
RA_OF_ASC_NODE = 272.2928
ARG_OF_PERICENTER = 81.8041
MEAN_ANOMALY   = 295.1711

EPHEMERIS_TYPE = 0
CLASSIFICATION_TYPE = U
NORAD_CAT_ID   = 27386
ELEMENT_SET_NO = 999
REV_AT_EPOCH   = 24295
BSTAR          = .10976E-3
MEAN_MOTION_DOT = .296E-5
MEAN_MOTION_DDOT = 0

CCSDS_OMM_VERS = 2.0
CREATION_DATE  = 
ORIGINATOR     = 

OBJECT_NAME    = IDEFIX & ARIANE 42P R/B
OBJECT_ID      = 2002-021B
CENTER_NAME    = EARTH
REF_FRAME      = TEME
TIME_SYSTEM    = UTC
MEAN_ELEMENT_THEORY = SGP/SGP4

EPOCH          = 2025-11-16T10:21:25.425792
MEAN_MOTION    = 14.30923368
ECCENTRICITY   = .00120848
INCLINATION    = 98.5744
RA_OF_ASC_NODE = 255.4694
ARG_OF_PERICENTER = 155.8801
MEAN_ANOMALY   = 204.2950

EPHEMERIS_TYPE = 0
CLASSIFICATION_TYPE = U
NORAD_CAT_ID   = 27422
ELEMENT_SET_NO = 999
REV_AT_EPOCH   = 22782
BSTAR          = .26276732E-3
MEAN_MOTION_DOT = .647E-5
MEAN_MOTION_DDOT = 0

CCSDS_OMM_VERS = 2.0
CREATION_DATE  = 
ORIGINATOR     = 

OBJECT_NAME    = AQUA
OBJECT_ID      = 2002-022A
CENTER_NAME    = EARTH
REF_FRAME      = TEME
TIME_SYSTEM    = UTC
MEAN_ELEMENT_THEORY = SGP/SGP4

EPOCH          = 2025-11-16T21:02:38.830848
MEAN_MOTION    = 14.61722713
ECCENTRICITY   = .0000679
INCLINATION    = 98.3998
RA_OF_ASC_NODE = 281.3426
ARG_OF_PERICENTER = 58.8185
MEAN_ANOMALY   = 327.6879

EPHEMERIS_TYPE = 0
CLASSIFICATION_TYPE = U
NORAD_CAT_ID   = 27424
ELEMENT_SET_NO = 999
REV_AT_EPOCH   = 25225
BSTAR          = .43177E-3
MEAN_MOTION_DOT = .2103E-4
MEAN_MOTION_DDOT = 0

CCSDS_OMM_VERS = 2.0
CREATION_DATE  = 
ORIGINATOR     = 

OBJECT_NAME    = CZ-4B R/B
OBJECT_ID      = 2002-024C
CENTER_NAME    = EARTH
REF_FRAME      = TEME
TIME_SYSTEM    = UTC
MEAN_ELEMENT_THEORY = SGP/SGP4

EPOCH          = 2025-11-16T15:11:29.688864
MEAN_MOTION    = 14.14520362
ECCENTRICITY   = .00498283
INCLINATION    = 98.9042
RA_OF_ASC_NODE = 9.4908
ARG_OF_PERICENTER = 345.2275
MEAN_ANOMALY   = 166.1756

EPHEMERIS_TYPE = 0
CLASSIFICATION_TYPE = U
NORAD_CAT_ID   = 27432
ELEMENT_SET_NO = 999
REV_AT_EPOCH   = 21325
BSTAR          = .9568286E-4
MEAN_MOTION_DOT = .141E-5
MEAN_MOTION_DDOT = 0

CCSDS_OMM_VERS = 2.0
CREATION_DATE  = 
ORIGINATOR     = 

OBJECT_NAME    = MIDORI II (ADEOS-II)
OBJECT_ID      = 2002-056A
CENTER_NAME    = EARTH
REF_FRAME      = TEME
TIME_SYSTEM    = UTC
MEAN_ELEMENT_THEORY = SGP/SGP4

EPOCH          = 2025-11-16T14:26:47.839776
MEAN_MOTION    = 14.29180672
ECCENTRICITY   = .00011792
INCLINATION    = 98.7593
RA_OF_ASC_NODE = 273.4269
ARG_OF_PERICENTER = 29.4686
MEAN_ANOMALY   = 330.6562

EPHEMERIS_TYPE = 0
CLASSIFICATION_TYPE = U
NORAD_CAT_ID   = 27597
ELEMENT_SET_NO = 999
REV_AT_EPOCH   = 19414
BSTAR          = .25211328E-3
MEAN_MOTION_DOT = .595E-5
MEAN_MOTION_DDOT = 0

CCSDS_OMM_VERS = 2.0
CREATION_DATE  = 
ORIGINATOR     = 

OBJECT_NAME    = H-2A R/B
OBJECT_ID      = 2002-056E
CENTER_NAME    = EARTH
REF_FRAME      = TEME
TIME_SYSTEM    = UTC
MEAN_ELEMENT_THEORY = SGP/SGP4

EPOCH          = 2025-11-16T16:04:39.150912
MEAN_MOTION    = 14.33649194
ECCENTRICITY   = .0071047
INCLINATION    = 98.3025
RA_OF_ASC_NODE = 280.4707
ARG_OF_PERICENTER = 137.6455
MEAN_ANOMALY   = 34.7364

EPHEMERIS_TYPE = 0
CLASSIFICATION_TYPE = U
NORAD_CAT_ID   = 27601
ELEMENT_SET_NO = 999
REV_AT_EPOCH   = 19791
BSTAR          = .21262E-3
MEAN_MOTION_DOT = .565E-5
MEAN_MOTION_DDOT = 0

CCSDS_OMM_VERS = 2.0
CREATION_DATE  = 
ORIGINATOR     = 

OBJECT_NAME    = CZ-4B R/B
OBJECT_ID      = 2003-049C
CENTER_NAME    = EARTH
REF_FRAME      = TEME
TIME_SYSTEM    = UTC
MEAN_ELEMENT_THEORY = SGP/SGP4

EPOCH          = 2025-11-16T11:04:31.987776
MEAN_MOTION    = 14.54875389
ECCENTRICITY   = .0047493
INCLINATION    = 98.6770
RA_OF_ASC_NODE = 306.0354
ARG_OF_PERICENTER = 216.2069
MEAN_ANOMALY   = 143.5910

EPHEMERIS_TYPE = 0
CLASSIFICATION_TYPE = U
NORAD_CAT_ID   = 28059
ELEMENT_SET_NO = 999
REV_AT_EPOCH   = 17013
BSTAR          = .20278332E-3
MEAN_MOTION_DOT = .832E-5
MEAN_MOTION_DDOT = 0

CCSDS_OMM_VERS = 2.0
CREATION_DATE  = 
ORIGINATOR     = 

OBJECT_NAME    = CZ-2C R/B
OBJECT_ID      = 2004-012C
CENTER_NAME    = EARTH
REF_FRAME      = TEME
TIME_SYSTEM    = UTC
MEAN_ELEMENT_THEORY = SGP/SGP4

EPOCH          = 2025-11-16T17:31:38.663904
MEAN_MOTION    = 15.53257846
ECCENTRICITY   = .0018788
INCLINATION    = 97.7472
RA_OF_ASC_NODE = 11.2469
ARG_OF_PERICENTER = 9.5236
MEAN_ANOMALY   = 350.6369

EPHEMERIS_TYPE = 0
CLASSIFICATION_TYPE = U
NORAD_CAT_ID   = 28222
ELEMENT_SET_NO = 999
REV_AT_EPOCH   = 18668
BSTAR          = .67262E-3
MEAN_MOTION_DOT = .42707E-3
MEAN_MOTION_DDOT = 0

CCSDS_OMM_VERS = 2.0
CREATION_DATE  = 
ORIGINATOR     = 

OBJECT_NAME    = SL-16 R/B
OBJECT_ID      = 2004-021B
CENTER_NAME    = EARTH
REF_FRAME      = TEME
TIME_SYSTEM    = UTC
MEAN_ELEMENT_THEORY = SGP/SGP4

EPOCH          = 2025-11-16T16:04:21.998784
MEAN_MOTION    = 14.14575918
ECCENTRICITY   = .0006434
INCLINATION    = 70.9987
RA_OF_ASC_NODE = 109.6715
ARG_OF_PERICENTER = 226.8645
MEAN_ANOMALY   = 133.1940

EPHEMERIS_TYPE = 0
CLASSIFICATION_TYPE = U
NORAD_CAT_ID   = 28353
ELEMENT_SET_NO = 999
REV_AT_EPOCH   = 10685
BSTAR          = .2287E-3
MEAN_MOTION_DOT = .392E-5
MEAN_MOTION_DDOT = 0

CCSDS_OMM_VERS = 2.0
CREATION_DATE  = 
ORIGINATOR     = 

OBJECT_NAME    = CZ-4B R/B
OBJECT_ID      = 2004-035C
CENTER_NAME    = EARTH
REF_FRAME      = TEME
TIME_SYSTEM    = UTC
MEAN_ELEMENT_THEORY = SGP/SGP4

EPOCH          = 2025-11-16T13:07:57.156384
MEAN_MOTION    = 15.26797814
ECCENTRICITY   = .00341182
INCLINATION    = 97.3649
RA_OF_ASC_NODE = 351.2481
ARG_OF_PERICENTER = 12.7516
MEAN_ANOMALY   = 347.4578

EPHEMERIS_TYPE = 0
CLASSIFICATION_TYPE = U
NORAD_CAT_ID   = 28415
ELEMENT_SET_NO = 999
REV_AT_EPOCH   = 16263
BSTAR          = .45879593E-3
MEAN_MOTION_DOT = .12223E-3
MEAN_MOTION_DDOT = 0

CCSDS_OMM_VERS = 2.0
CREATION_DATE  = 
ORIGINATOR     = 

OBJECT_NAME    = CZ-2C R/B
OBJECT_ID      = 2004-046B
CENTER_NAME    = EARTH
REF_FRAME      = TEME
TIME_SYSTEM    = UTC
MEAN_ELEMENT_THEORY = SGP/SGP4

EPOCH          = 2025-11-16T09:11:46.811616
MEAN_MOTION    = 14.26924275
ECCENTRICITY   = .01404358
INCLINATION    = 98.1964
RA_OF_ASC_NODE = 237.4030
ARG_OF_PERICENTER = 129.6174
MEAN_ANOMALY   = 231.7503

EPHEMERIS_TYPE = 0
CLASSIFICATION_TYPE = U
NORAD_CAT_ID   = 28480
ELEMENT_SET_NO = 999
REV_AT_EPOCH   = 9234
BSTAR          = .14839157E-3
MEAN_MOTION_DOT = .36E-5
MEAN_MOTION_DDOT = 0

