TITAN 4B R/B            
1 26474U 00047B   25320.68768528  .00005575  00000+0  35777-3 0  9999
2 26474  67.9913 358.0088 0041193 175.0085 185.1484 15.08522583375865
ENVISAT                 
1 27386U 02009A   25320.89149624  .00000296  00000+0  10976-3 0  9994
2 27386  98.3556 272.2928 0001269  81.8041 295.1711 14.38985924242957
IDEFIX & ARIANE 42P R/B 
1 27422U 02021B   25320.43154428  .00000647  00000+0  26277-3 0  9998
2 27422  98.5744 255.4694 0012084 155.8801 204.2950 14.30923368227826
AQUA                    
1 27424U 02022A   25320.87683832  .00002103  00000+0  43177-3 0  9992
2 27424  98.3998 281.3426 0000679  58.8185 327.6879 14.61722713252252
CZ-4B R/B               
1 27432U 02024C   25320.63298251  .00000141  00000+0  95683-4 0  9994
2 27432  98.9042   9.4908 0049828 345.2275 166.1756 14.14520362213254
MIDORI II (ADEOS-II)    
1 27597U 02056A   25320.60194259  .00000595  00000+0  25211-3 0  9993
2 27597  98.7593 273.4269 0001179  29.4686 330.6562 14.29180672194143
H-2A R/B                
1 27601U 02056E   25320.66989758  .00000565  00000+0  21262-3 0  9990
2 27601  98.3025 280.4707 0071047 137.6455  34.7364 14.33649194197911
CZ-4B R/B               
1 28059U 03049C   25320.46148134  .00000832  00000+0  20278-3 0  9997
2 28059  98.6770 306.0354 0047493 216.2069 143.5910 14.54875389170136
CZ-2C R/B               
1 28222U 04012C   25320.73030861  .00042707  00000+0  67262-3 0  9998
2 28222  97.7472  11.2469 0018788   9.5236 350.6369 15.53257846186681
SL-16 R/B               
1 28353U 04021B   25320.66969906  .00000392  00000+0  22870-3 0  9996
2 28353  70.9987 109.6715 0006434 226.8645 133.1940 14.14575918106858
CZ-4B R/B               
1 28415U 04035C   25320.54718931  .00012223  00000+0  45880-3 0  9999
2 28415  97.3649 351.2481 0034118  12.7516 347.4578 15.26797814162639
CZ-2C R/B               
1 28480U 04046B   25320.38318069  .00000360  00000+0  14839-3 0  9992
2 28480  98.1964 237.4030 0140435 129.6174 231.7503 14.26924275 92348
